[{"OBJECT_NAME":"STARLINK-30829","OBJECT_ID":"2023-166J","EPOCH":"2026-03-09T16:14:04.895520","MEAN_MOTION":15.30237339,"ECCENTRICITY":0.0001359,"INCLINATION":53.1604,"RA_OF_ASC_NODE":219.9289,"ARG_OF_PERICENTER":111.1626,"MEAN_ANOMALY":248.952,"EPHEMERIS_TYPE":0,"CLASSIFICATION_TYPE":"U","NORAD_CAT_ID":58158,"ELEMENT_SET_NO":999,"REV_AT_EPOCH":13317,"BSTAR":0.00025313755,"MEAN_MOTION_DOT":7.154e-5,"MEAN_MOTION_DDOT":0},{"OBJECT_NAME":"OBJECT B","OBJECT_ID":"2024-203B","EPOCH":"2026-03-09T23:52:52.928256","MEAN_MOTION":15.27506959,"ECCENTRICITY":0.00103904,"INCLINATION":97.4268,"RA_OF_ASC_NODE":139.5887,"ARG_OF_PERICENTER":321.1475,"MEAN_ANOMALY":38.9016,"EPHEMERIS_TYPE":0,"CLASSIFICATION_TYPE":"U","NORAD_CAT_ID":61870,"ELEMENT_SET_NO":999,"REV_AT_EPOCH":7381,"BSTAR":0.00063263842,"MEAN_MOTION_DOT":0.00016997,"MEAN_MOTION_DDOT":0}]
